HULIANWANG DIGUI-17     
1 62977U 25030G   26065.26452964 -.00000100  00000+0  52849-4 0  9991
2 62977  50.0046 244.7109 0000754 161.1027 198.9874 13.29338235 52179
HULIANWANG DIGUI-18     
1 62978U 25030H   26065.25615651 -.00000095  00000+0  63568-4 0  9998
2 62978  50.0051 244.6776 0000767 161.2117 198.8783 13.29338279 52176
HULIANWANG DIGUI-19     
1 62979U 25030J   26065.13900765 -.00000092  00000+0  70088-4 0  9991
2 62979  50.0036 245.3455 0000807 155.7662 204.3249 13.29341482 52158
HULIANWANG DIGUI-20     
1 63687U 25086A   26065.27919677  .00000088  00000+0  17091-3 0  9994
2 63687  86.5125 347.7856 0001754  91.5803 268.5532 13.24420307 41251
HULIANWANG DIGUI-21     
1 63688U 25086B   26065.28668769  .00000077  00000+0  14560-3 0  9995
2 63688  86.5154 347.8127 0001646  94.5792 265.5530 13.24421917 41248
HULIANWANG DIGUI-22     
1 63689U 25086C   26065.29425191  .00000068  00000+0  12517-3 0  9997
2 63689  86.5119 347.7129 0001820  91.6502 268.4841 13.24421624 41244
HULIANWANG DIGUI-23     
1 63690U 25086D   26065.23376147  .00000064  00000+0  11456-3 0  9996
2 63690  86.5160 347.8701 0001752  87.9075 272.2260 13.24422387 41230
HULIANWANG DIGUI-24     
1 63691U 25086E   26065.24137507  .00000068  00000+0  12495-3 0  9991
2 63691  86.5167 347.8943 0001795  92.3643 267.7697 13.24420461 41238
HULIANWANG DIGUI-25     
1 63692U 25086F   26065.24890602  .00000084  00000+0  16229-3 0  9991
2 63692  86.5105 347.7131 0001691  91.3591 268.7737 13.24421887 41234
HULIANWANG DIGUI-26     
1 63693U 25086G   26065.22613419  .00000069  00000+0  12766-3 0  9994
2 63693  86.5155 347.8476 0001773  96.2848 263.8488 13.24421436 41232
HULIANWANG DIGUI-27     
1 63694U 25086H   26065.25654075  .00000089  00000+0  17262-3 0  9999
2 63694  86.5115 347.7451 0001802  91.1675 268.9666 13.24420253 41236
HULIANWANG DIGUI-28     
1 63695U 25086J   26065.27157209  .00000100  00000+0  19869-3 0  9998
2 63695  86.5079 347.6441 0001802  91.2231 268.9109 13.24421615 41238
HULIANWANG DIGUI-29     
1 63696U 25086K   26065.26409671  .00000099  00000+0  19645-3 0  9990
2 63696  86.5107 347.7270 0001689  91.8200 268.3127 13.24420447 41233
HULIANWANG DIGUI-30     
1 64283U 25121A   26065.27146363  .00000041  00000+0  61892-4 0  9999
2 64283  86.4950  48.2782 0001991  78.1355 282.0002 13.24423379 36536
HULIANWANG DIGUI-31     
1 64284U 25121B   26065.26413401  .00000039  00000+0  57593-4 0  9999
2 64284  86.4970  48.3314 0002009  78.4218 281.7142 13.24419621 36539
HULIANWANG DIGUI-32     
1 64285U 25121C   26065.25621914  .00000032  00000+0  40621-4 0  9996
2 64285  86.4912  48.1630 0002002  80.4344 279.7016 13.24425292 36539
