[{"OBJECT_NAME":"HULIANWANG DIGUI-17","OBJECT_ID":"2025-030G","EPOCH":"2026-03-06T06:20:55.360896","MEAN_MOTION":13.29338235,"ECCENTRICITY":7.547e-5,"INCLINATION":50.0046,"RA_OF_ASC_NODE":244.7109,"ARG_OF_PERICENTER":161.1027,"MEAN_ANOMALY":198.9874,"EPHEMERIS_TYPE":0,"CLASSIFICATION_TYPE":"U","NORAD_CAT_ID":62977,"ELEMENT_SET_NO":999,"REV_AT_EPOCH":5217,"BSTAR":5.2849189e-5,"MEAN_MOTION_DOT":-1.0e-6,"MEAN_MOTION_DDOT":0},{"OBJECT_NAME":"HULIANWANG DIGUI-18","OBJECT_ID":"2025-030H","EPOCH":"2026-03-06T06:08:51.922464","MEAN_MOTION":13.29338279,"ECCENTRICITY":7.67e-5,"INCLINATION":50.0051,"RA_OF_ASC_NODE":244.6776,"ARG_OF_PERICENTER":161.2117,"MEAN_ANOMALY":198.8783,"EPHEMERIS_TYPE":0,"CLASSIFICATION_TYPE":"U","NORAD_CAT_ID":62978,"ELEMENT_SET_NO":999,"REV_AT_EPOCH":5217,"BSTAR":6.3567895e-5,"MEAN_MOTION_DOT":-9.5e-7,"MEAN_MOTION_DDOT":0},{"OBJECT_NAME":"HULIANWANG DIGUI-19","OBJECT_ID":"2025-030J","EPOCH":"2026-03-06T03:20:10.260960","MEAN_MOTION":13.29341482,"ECCENTRICITY":8.079e-5,"INCLINATION":50.0036,"RA_OF_ASC_NODE":245.3455,"ARG_OF_PERICENTER":155.7662,"MEAN_ANOMALY":204.3249,"EPHEMERIS_TYPE":0,"CLASSIFICATION_TYPE":"U","NORAD_CAT_ID":62979,"ELEMENT_SET_NO":999,"REV_AT_EPOCH":5215,"BSTAR":7.0088209e-5,"MEAN_MOTION_DOT":-9.2e-7,"MEAN_MOTION_DDOT":0},{"OBJECT_NAME":"HULIANWANG DIGUI-20","OBJECT_ID":"2025-086A","EPOCH":"2026-03-06T06:42:02.600928","MEAN_MOTION":13.24420307,"ECCENTRICITY":0.00017541,"INCLINATION":86.5125,"RA_OF_ASC_NODE":347.7856,"ARG_OF_PERICENTER":91.5803,"MEAN_ANOMALY":268.5532,"EPHEMERIS_TYPE":0,"CLASSIFICATION_TYPE":"U","NORAD_CAT_ID":63687,"ELEMENT_SET_NO":999,"REV_AT_EPOCH":4125,"BSTAR":0.00017090599,"MEAN_MOTION_DOT":8.8e-7,"MEAN_MOTION_DDOT":0},{"OBJECT_NAME":"HULIANWANG DIGUI-21","OBJECT_ID":"2025-086B","EPOCH":"2026-03-06T06:52:49.816416","MEAN_MOTION":13.24421917,"ECCENTRICITY":0.00016462,"INCLINATION":86.5154,"RA_OF_ASC_NODE":347.8127,"ARG_OF_PERICENTER":94.5792,"MEAN_ANOMALY":265.553,"EPHEMERIS_TYPE":0,"CLASSIFICATION_TYPE":"U","NORAD_CAT_ID":63688,"ELEMENT_SET_NO":999,"REV_AT_EPOCH":4124,"BSTAR":0.00014560406,"MEAN_MOTION_DOT":7.7e-7,"MEAN_MOTION_DDOT":0},{"OBJECT_NAME":"HULIANWANG DIGUI-22","OBJECT_ID":"2025-086C","EPOCH":"2026-03-06T07:03:43.365024","MEAN_MOTION":13.24421624,"ECCENTRICITY":0.00018201,"INCLINATION":86.5119,"RA_OF_ASC_NODE":347.7129,"ARG_OF_PERICENTER":91.6502,"MEAN_ANOMALY":268.4841,"EPHEMERIS_TYPE":0,"CLASSIFICATION_TYPE":"U","NORAD_CAT_ID":63689,"ELEMENT_SET_NO":999,"REV_AT_EPOCH":4124,"BSTAR":0.00012516895,"MEAN_MOTION_DOT":6.8e-7,"MEAN_MOTION_DDOT":0},{"OBJECT_NAME":"HULIANWANG DIGUI-23","OBJECT_ID":"2025-086D","EPOCH":"2026-03-06T05:36:36.991008","MEAN_MOTION":13.24422387,"ECCENTRICITY":0.00017524,"INCLINATION":86.516,"RA_OF_ASC_NODE":347.8701,"ARG_OF_PERICENTER":87.9075,"MEAN_ANOMALY":272.226,"EPHEMERIS_TYPE":0,"CLASSIFICATION_TYPE":"U","NORAD_CAT_ID":63690,"ELEMENT_SET_NO":999,"REV_AT_EPOCH":4123,"BSTAR":0.00011455815,"MEAN_MOTION_DOT":6.4e-7,"MEAN_MOTION_DDOT":0},{"OBJECT_NAME":"HULIANWANG DIGUI-24","OBJECT_ID":"2025-086E","EPOCH":"2026-03-06T05:47:34.806048","MEAN_MOTION":13.24420461,"ECCENTRICITY":0.00017952,"INCLINATION":86.5167,"RA_OF_ASC_NODE":347.8943,"ARG_OF_PERICENTER":92.3643,"MEAN_ANOMALY":267.7697,"EPHEMERIS_TYPE":0,"CLASSIFICATION_TYPE":"U","NORAD_CAT_ID":63691,"ELEMENT_SET_NO":999,"REV_AT_EPOCH":4123,"BSTAR":0.00012494848,"MEAN_MOTION_DOT":6.8e-7,"MEAN_MOTION_DDOT":0},{"OBJECT_NAME":"HULIANWANG DIGUI-25","OBJECT_ID":"2025-086F","EPOCH":"2026-03-06T05:58:25.480128","MEAN_MOTION":13.24421887,"ECCENTRICITY":0.00016916,"INCLINATION":86.5105,"RA_OF_ASC_NODE":347.7131,"ARG_OF_PERICENTER":91.3591,"MEAN_ANOMALY":268.7737,"EPHEMERIS_TYPE":0,"CLASSIFICATION_TYPE":"U","NORAD_CAT_ID":63692,"ELEMENT_SET_NO":999,"REV_AT_EPOCH":4123,"BSTAR":0.00016229183,"MEAN_MOTION_DOT":8.4e-7,"MEAN_MOTION_DDOT":0},{"OBJECT_NAME":"HULIANWANG DIGUI-26","OBJECT_ID":"2025-086G","EPOCH":"2026-03-06T05:25:37.994016","MEAN_MOTION":13.24421436,"ECCENTRICITY":0.00017734,"INCLINATION":86.5155,"RA_OF_ASC_NODE":347.8476,"ARG_OF_PERICENTER":96.2848,"MEAN_ANOMALY":263.8488,"EPHEMERIS_TYPE":0,"CLASSIFICATION_TYPE":"U","NORAD_CAT_ID":63693,"ELEMENT_SET_NO":999,"REV_AT_EPOCH":4123,"BSTAR":0.00012765607,"MEAN_MOTION_DOT":6.9e-7,"MEAN_MOTION_DDOT":0},{"OBJECT_NAME":"HULIANWANG DIGUI-27","OBJECT_ID":"2025-086H","EPOCH":"2026-03-06T06:09:25.120800","MEAN_MOTION":13.24420253,"ECCENTRICITY":0.00018023,"INCLINATION":86.5115,"RA_OF_ASC_NODE":347.7451,"ARG_OF_PERICENTER":91.1675,"MEAN_ANOMALY":268.9666,"EPHEMERIS_TYPE":0,"CLASSIFICATION_TYPE":"U","NORAD_CAT_ID":63694,"ELEMENT_SET_NO":999,"REV_AT_EPOCH":4123,"BSTAR":0.00017261542,"MEAN_MOTION_DOT":8.9e-7,"MEAN_MOTION_DDOT":0},{"OBJECT_NAME":"HULIANWANG DIGUI-28","OBJECT_ID":"2025-086J","EPOCH":"2026-03-06T06:31:03.828576","MEAN_MOTION":13.24421615,"ECCENTRICITY":0.00018027,"INCLINATION":86.5079,"RA_OF_ASC_NODE":347.6441,"ARG_OF_PERICENTER":91.2231,"MEAN_ANOMALY":268.9109,"EPHEMERIS_TYPE":0,"CLASSIFICATION_TYPE":"U","NORAD_CAT_ID":63695,"ELEMENT_SET_NO":999,"REV_AT_EPOCH":4123,"BSTAR":0.00019869208,"MEAN_MOTION_DOT":1.0e-6,"MEAN_MOTION_DDOT":0},{"OBJECT_NAME":"HULIANWANG DIGUI-29","OBJECT_ID":"2025-086K","EPOCH":"2026-03-06T06:20:17.955744","MEAN_MOTION":13.24420447,"ECCENTRICITY":0.00016896,"INCLINATION":86.5107,"RA_OF_ASC_NODE":347.727,"ARG_OF_PERICENTER":91.82,"MEAN_ANOMALY":268.3127,"EPHEMERIS_TYPE":0,"CLASSIFICATION_TYPE":"U","NORAD_CAT_ID":63696,"ELEMENT_SET_NO":999,"REV_AT_EPOCH":4123,"BSTAR":0.00019644916,"MEAN_MOTION_DOT":9.9e-7,"MEAN_MOTION_DDOT":0},{"OBJECT_NAME":"HULIANWANG DIGUI-30","OBJECT_ID":"2025-121A","EPOCH":"2026-03-06T06:30:54.457632","MEAN_MOTION":13.24423379,"ECCENTRICITY":0.0001991,"INCLINATION":86.495,"RA_OF_ASC_NODE":48.2782,"ARG_OF_PERICENTER":78.1355,"MEAN_ANOMALY":282.0002,"EPHEMERIS_TYPE":0,"CLASSIFICATION_TYPE":"U","NORAD_CAT_ID":64283,"ELEMENT_SET_NO":999,"REV_AT_EPOCH":3653,"BSTAR":6.1892327e-5,"MEAN_MOTION_DOT":4.1e-7,"MEAN_MOTION_DDOT":0},{"OBJECT_NAME":"HULIANWANG DIGUI-31","OBJECT_ID":"2025-121B","EPOCH":"2026-03-06T06:20:21.178464","MEAN_MOTION":13.24419621,"ECCENTRICITY":0.00020097,"INCLINATION":86.497,"RA_OF_ASC_NODE":48.3314,"ARG_OF_PERICENTER":78.4218,"MEAN_ANOMALY":281.7142,"EPHEMERIS_TYPE":0,"CLASSIFICATION_TYPE":"U","NORAD_CAT_ID":64284,"ELEMENT_SET_NO":999,"REV_AT_EPOCH":3653,"BSTAR":5.7592636e-5,"MEAN_MOTION_DOT":3.9e-7,"MEAN_MOTION_DDOT":0},{"OBJECT_NAME":"HULIANWANG DIGUI-32","OBJECT_ID":"2025-121C","EPOCH":"2026-03-06T06:08:57.333696","MEAN_MOTION":13.24425292,"ECCENTRICITY":0.00020024,"INCLINATION":86.4912,"RA_OF_ASC_NODE":48.163,"ARG_OF_PERICENTER":80.4344,"MEAN_ANOMALY":279.7016,"EPHEMERIS_TYPE":0,"CLASSIFICATION_TYPE":"U","NORAD_CAT_ID":64285,"ELEMENT_SET_NO":999,"REV_AT_EPOCH":3653,"BSTAR":4.0621465e-5,"MEAN_MOTION_DOT":3.2e-7,"MEAN_MOTION_DDOT":0}]
